IRIDIUM 106             
1 41917U 17003A   24333.13326550  .00000301  00000+0  10053-3 0  9998
2 41917  86.3948 325.0814 0002049  81.4999 278.6428 14.34214687412071
IRIDIUM 103             
1 41918U 17003B   24332.70197050  .00000063  00000+0  15422-4 0  9993
2 41918  86.3949 325.1631 0002743  77.9244 282.2259 14.34217742412039
IRIDIUM 109             
1 41919U 17003C   24333.12692546  .00000158  00000+0  49408-4 0  9997
2 41919  86.3951 325.0357 0002481  92.0070 268.1410 14.34212745412086
IRIDIUM 102             
1 41920U 17003D   24333.16497828 -.00000042  00000+0 -22060-4 0  9998
2 41920  86.3947 324.9550 0002142  92.0239 268.1202 14.34216635412156
IRIDIUM 105             
1 41921U 17003E   24332.64733096  .00001105  00000+0  38747-3 0  9998
2 41921  86.3941 293.5900 0002253  80.9638 279.1813 14.34225658413935
IRIDIUM 104             
1 41922U 17003F   24332.89859232 -.00000293  00000+0 -11183-3 0  9991
2 41922  86.3949 325.1004 0002754  91.9961 268.1550 14.34216397412102
IRIDIUM 114             
1 41923U 17003G   24333.32354855  .00000428  00000+0  14575-3 0  9998
2 41923  86.3948 324.9083 0002404  83.7324 276.4146 14.34217337412164
IRIDIUM 108             
1 41924U 17003H   24332.65414947 -.00000070  00000+0 -31935-4 0  9998
2 41924  86.3932 293.5017 0001862  81.0329 279.1078 14.34216276413907
